#cP2023 11 22  0  0  0.00000000      96 ORBIT IGS20 HLM  IGS
## 2289 259200.00000000   900.00000000 60270 0.0000000000000
+   32   G01G02G03G04G05G06G07G08G09G10G11G12G13G14G15G16G17
+        G18G19G20G21G22G23G24G25G26G27G28G29G30G31G32  0  0
+          0  0  0  0  0  0  0  0  0  0  0  0  0  0  0  0  0
+          0  0  0  0  0  0  0  0  0  0  0  0  0  0  0  0  0
+          0  0  0  0  0  0  0  0  0  0  0  0  0  0  0  0  0
++         2  2  2  2  2  2  2  1  2  2  2  2  2  2  2  2  2
++         2  2  2  2  3  2  2  2  2  2  2  2  2  2  2  0  0
++         0  0  0  0  0  0  0  0  0  0  0  0  0  0  0  0  0
++         0  0  0  0  0  0  0  0  0  0  0  0  0  0  0  0  0
++         0  0  0  0  0  0  0  0  0  0  0  0  0  0  0  0  0
%c G  cc GPS ccc cccc cccc cccc cccc ccccc ccccc ccccc ccccc
%c cc cc ccc ccc cccc cccc cccc cccc ccccc ccccc ccccc ccccc
%f  1.2500000  1.025000000  0.00000000000  0.000000000000000
%f  0.0000000  0.000000000  0.00000000000  0.000000000000000
%i    0    0    0    0      0      0      0      0         0
%i    0    0    0    0      0      0      0      0         0
/* FINAL ORBIT COMBINATION FROM WEIGHTED AVERAGE OF:        
/* cod esa gfz grg jgx jpl mit ngs sio                      
/* REFERENCED TO IGS TIME (IGST) AND TO WEIGHTED MEAN POLE: 
/* PCV:IGS20      OL/AL:FES2014b NONE     Y  ORB:CMB CLK:CMB
*  2023 11 22 12 45  0.00000000
PG01 -14566.309295  21104.349732   5867.366124    163.261639  4  5  6  75       
PG02 -15762.912187  17316.027899  12844.344109   -525.589554  5  5  3  78       
PG03 -18039.771154  11967.596218 -15457.537488      2.967953  5  5  4  16       
PG04  -7286.526735  15029.829584 -20611.840850    219.802415  4     3  40       
PG05  25757.256641  -5775.712713   3191.684878   -151.347717  5  3  5  51       
PG06  10411.419814  11185.877838 -21640.763579    499.118014  6  4  2  80       
PG07  -3188.087997  24239.165848  10239.341086      6.866020  5     5 102       
PG08 -13901.492436   6813.838256  21531.214510   -153.324732  5  2  4  44       
PG09   3091.807073  21807.139459 -14891.913871      4.581356  7  4  4  92       
PG10 -15155.413896 -11340.626939  18960.042109    -62.382830  1  5  4  90       
PG11  16551.156884   -728.134679 -20725.735786   -470.788948  8  3  6  63       
PG12  19760.514749 -10501.684244 -14529.841527   -449.711611  9  8  8  82       
PG13  17300.097971   4384.959433  19537.695224    597.983099  5  4     62       
PG14  11249.551601  13627.133613  19901.924362    250.393400  6  7  5  87       
PG15  12915.688135  -8926.312474  20947.697332     99.634411  2  5  3  87       
PG16 -26721.254288  -1346.403404  -2058.831353   -417.602377  8  6  5  76       
PG17  12476.773121  23285.733457   2345.889728    722.966456  5  3  2 106       
PG18   2907.877931 -23719.026420  11405.475131   -486.273777  3  3  5  98       
PG19  16665.750479  19671.492540  -7290.297492    402.390666  7  3  3 101       
PG20  24724.849797    282.719489  -9397.236620    400.347565  8  2  5  76       
PG21 -16438.309637  13839.946781  15474.161413    143.591521  7  4  3  65       
PG22  17459.849109  11558.204764  16614.426979     79.273895  5  7  6  76       
PG23  -1348.528247 -14814.363716  22014.478828    103.207511  5  4  5  99       
PG24  15048.587021 -18527.673083  10793.272742   -377.117181  6  3  3  90       
PG25   7183.601959 -15504.831831 -20592.965161    478.474763  5  6  9  86       
PG26 -23741.649928  -4690.903150 -11487.314237    214.852014  7  6  7  95       
PG27 -19367.432507  -7339.715116  16604.044079    -73.404746  5  4  5  76       
PG28 -10110.651151 -13234.479186 -20716.775444    -51.997184  5  6  2  88       
PG29   -863.025542 -21696.898021 -15268.696007   -610.160379  8  4  1 100       
PG30   5058.840707  19422.154220  17386.934823   -465.547450  5  5  3 100       
PG31 -15003.274393  -4345.786869 -21710.941566   -225.975484  4  6  4  62       
PG32 -16278.524032 -21080.124022  -1289.710296   -588.619791  5  4  3  96       
*  2023 11 22 13  0  0.00000000
PG01 -14381.858522  20225.797570   8637.745421    163.261837  4  5  6  75       
PG02 -15458.119996  15808.557223  15072.416708   -525.584941  5  5  4  72       
PG03 -19666.487892  12014.027759 -13250.609537      2.991165  5  5  4  68       
PG04  -8726.682105  13102.117046 -21365.563255    219.811739  4     3  63       
PG05  26012.816426  -5590.931788    334.560456   -151.348857  5  3  5  49       
PG06   9385.441136  13399.676550 -20831.710309    499.108675  5  4  3  97       
PG07  -3833.217948  25027.569121   7632.911043      6.857074  5     6  99       
PG08 -15413.584849   4885.463810  21058.815886   -153.327091  5  2  5  47       
PG09   1827.662301  20507.371660 -16837.188583      4.591552  7  4  4  93       
PG10 -12986.959194 -11682.912621  20298.190155    -62.384094     5  4  88       
PG11  15557.227820   1475.995745 -21447.211545   -470.803305  8  3  6  69       
PG12  21262.492824 -10390.884999 -12263.060182   -449.715536 10  8  8  61       
PG13  18264.943322   6346.272042  18101.270532    597.986691  6  4     75       
PG14   8942.716514  13936.337938  20821.777055    250.403016  6  6  5  84       
PG15  14651.266026  -7151.457817  20511.997560     99.637996  4  5  3  79       
PG16 -26373.526799  -1565.525082  -4858.281506   -417.596030  8  6  5 127       
PG17  12074.710270  23092.010066   5188.122244    722.965963  5  3  3 104       
PG18   3566.852601 -24695.843492   8839.517400   -486.283333  4  4  5  96       
PG19  16835.682016  20324.719207  -4540.815636    402.395473  7  4  2 100       
PG20  23622.876220    889.371908 -11873.309548    400.345684  7  2  5  79       
PG21 -16071.997610  12034.949019  17397.311052    143.590798  6  4  3  56       
PG22  15533.444025  11775.613642  18356.209834     79.267585  4  6  5  83       
PG23   1125.225436 -15168.479751  21768.209877    103.213380  4  4  5 100       
PG24  14907.216549 -17057.157137  13120.604973   -377.125015  6  3  4  93       
PG25   9416.445586 -15698.988107 -19474.526076    478.476218  5  6  9  53       
PG26 -22399.568030  -5207.229543 -13731.832356    214.849510  7  6  7  95       
PG27 -20347.361350  -8873.850129  14632.165447    -73.409424  4  4  5  82       
PG28  -9196.641170 -15351.902046 -19653.220009    -52.005101  5  6  2  90       
PG29    264.783887 -20220.244885 -17209.262689   -610.160113  7  4  1  95       
PG30   4114.311355  21066.099343  15594.746573   -465.543765  6  5  4 102       
PG31 -13992.378539  -6574.184946 -21789.560935   -225.975518  5  6  4  80       
PG32 -16090.730413 -21230.958691   1552.926991   -588.623694  5  4  3 103       
*  2023 11 22 13 15  0.00000000
PG01 -14138.650513  19046.314419  11254.609361    163.262045  4  5  6  71       
PG02 -15173.111406  14063.918145  17046.856563   -525.580255  4  5  5  59       
PG03 -21030.965913  12102.278112 -10816.250665      3.014389  5  6  4  55       
PG04 -10305.203021  11202.898785 -21750.767377    219.821088  4     3  55       
PG05  25962.585977  -5347.869222  -2528.309663   -151.350284  5  3  6  67       
PG06   8524.460883  15562.390899 -19661.265431    499.099293  5  4  3  94       
PG07  -4340.904719  25562.469763   4893.440788      6.848315  4     6 102       
PG08 -16970.548698   3095.528742  20223.651539   -153.329520  5  1  5  38       
PG09    363.614876  19123.246518 -18493.909727      4.601768  7  4  4  75       
PG10 -10710.684955 -12171.205209  21295.562421    -62.385855  2  5  4  93       
PG11  14658.141184   3785.397934 -21798.668591   -470.817671  7  3  6  89       
PG12  22504.817599 -10328.005065  -9787.470021   -449.719136 10  8  7  64       
PG13  19235.053818   8097.485460  16350.744777    597.990275  6  4     79       
PG14   6570.140381  14374.111628  21385.083619    250.412631  6  6  5  89       
PG15  16411.624785  -5508.796304  19708.710826     99.641361  5  5  2  60       
PG16 -25731.738648  -1830.352691  -7576.922060   -417.590077  8  6  5 121       
PG17  11475.970374  22665.912125   7941.199018    722.965541  5  3  3  99       
PG18   4066.947665 -25425.246148   6119.899690   -486.292978  5  4  5  90       
PG19  16863.283715  20710.672526  -1715.094028    402.399931  7  4  3 100       
PG20  22300.006963   1643.709293 -14142.575014    400.343990  7  3  5  72       
PG21 -15748.605169  10029.120976  19021.361613    143.590273  6  4  3  49       
PG22  13448.792144  12109.271041  19789.659517     79.261547  4  6  3  80       
PG23   3529.685622 -15647.016753  21147.196514    103.219295  2  3  5 100       
PG24  14771.579857 -15334.912027  15212.133384   -377.132805  6  4  4  96       
PG25  11499.405944 -15978.916501 -18027.243411    478.477696  6  6  9  40       
PG26 -20853.560848  -5848.276597 -15745.900175    214.846960  6  7  7  92       
PG27 -21251.298731 -10169.940532  12409.201821    -73.414131  4  4  4  87       
PG28  -8436.663581 -17381.495833 -18252.243093    -52.013084  5  5  3  91       
PG29   1589.879343 -18643.143222 -18853.464619   -610.160253  8  4  1  89       
PG30   3321.989507  22550.652017  13533.321612   -465.540073  5  4  4 103       
PG31 -13100.521119  -8844.609548 -21499.795093   -225.975784  6  5  5  82       
PG32 -15703.319665 -21150.161726   4369.224380   -588.627597  5  4  3 109       
EOF
